FENGYUN 1C DEB          
1 30957U 99025BAX 17345.67779246  .00003456  00000-0  61614-3 0  9996
2 30957  99.0765 252.9582 0069214 255.1303 104.2225 14.66247178566735
